[{"OBJECT_NAME":"POLYITAN-1","OBJECT_ID":"2014-033AJ","EPOCH":"2026-03-09T22:27:50.258304","MEAN_MOTION":15.29568085,"ECCENTRICITY":0.00093607,"INCLINATION":98.1053,"RA_OF_ASC_NODE":86.0432,"ARG_OF_PERICENTER":127.248,"MEAN_ANOMALY":232.9614,"EPHEMERIS_TYPE":0,"CLASSIFICATION_TYPE":"U","NORAD_CAT_ID":40042,"ELEMENT_SET_NO":999,"REV_AT_EPOCH":63840,"BSTAR":0.00083772474,"MEAN_MOTION_DOT":0.00024003,"MEAN_MOTION_DDOT":0},{"OBJECT_NAME":"STARLINK-33682","OBJECT_ID":"2025-069A","EPOCH":"2026-03-09T11:46:47.350848","MEAN_MOTION":15.30201384,"ECCENTRICITY":0.00012279,"INCLINATION":53.1574,"RA_OF_ASC_NODE":143.4505,"ARG_OF_PERICENTER":74.1805,"MEAN_ANOMALY":285.9331,"EPHEMERIS_TYPE":0,"CLASSIFICATION_TYPE":"U","NORAD_CAT_ID":63433,"ELEMENT_SET_NO":999,"REV_AT_EPOCH":5337,"BSTAR":0.00092580896,"MEAN_MOTION_DOT":0.00027162,"MEAN_MOTION_DDOT":0}]
